BEESAT-4                
1 41619U 16040W   22165.10906811  .00013993  00000+0  46821-3 0  9992
2 41619  97.2168 215.8273 0011373 125.4825 234.7479 15.31015578320216
CAS-2T & KS-1Q          
1 41847U 16066G   22165.42144612  .00000840  00000+0  13669-3 0  9992
2 41847  98.5511 230.0960 0363114 218.8066 138.6532 14.38577426293913
NAYIF-1 (EO-88)         
1 42017U 17008BX  22165.17370492  .00015646  00000+0  46981-3 0  9991
2 42017  97.2694 231.3347 0003687 239.8189 120.2689 15.34512314296576
ZHUHAI-1 02 (CAS-4B)    
1 42759U 17034B   22165.87791383  .00002917  00000+0  18021-3 0  9997
2 42759  43.0190 346.8988 0010295 275.5952 225.4778 15.11879415275960
ZHUHAI-1 01 (CAS-4A)    
1 42761U 17034D   22165.84723240  .00002918  00000+0  17979-3 0  9996
2 42761  43.0189 345.8581 0010770 276.5113 221.6983 15.11971236275967
MAX VALIER SAT          
1 42778U 17036P   22165.57117872  .00009067  00000+0  34479-3 0  9990
2 42778  97.2048 206.7709 0009798 346.8671  13.2312 15.26949147276464
RADFXSAT (FOX-1B)       
1 43017U 17073E   22165.12945273  .00003000  00000+0  22958-3 0  9993
2 43017  97.6762  59.4598 0248204 198.4185 160.7922 14.81372596246623
FOX-1D (AO-92)          
1 43137U 18004AC  22165.67461449  .00010432  00000+0  36884-3 0  9999
2 43137  97.3690 240.8553 0007750  24.8320 335.3292 15.29336085245920
DIWATA-2B               
1 43678U 18084H   22165.83423686  .00000257  00000+0  30986-4 0  9998
2 43678  97.9697 299.0682 0008635 298.6974  61.3375 14.92162708197462
ES'HAIL 2               
1 43700U 18090A   22165.64628804  .00000151  00000+0  00000+0 0  9991
2 43700   0.0141 305.7967 0001397 153.2687  62.3193  1.00272621 13000
FOX-1CLIFF (AO-95)      
1 43770U 18099N   22165.84874031  .00002595  00000+0  23356-3 0  9991
2 43770  97.6205 232.2663 0012696 285.1670  74.8147 14.96421180192626
ITASAT 1                
1 43786U 18099AE  22165.44109845  .00001859  00000+0  16813-3 0  9990
2 43786  97.6233 232.7864 0013474 279.1481  80.8216 14.96568202192609
JY1SAT (JO-97)          
1 43803U 18099AX  22165.12569763  .00003142  00000+0  27720-3 0  9990
2 43803  97.6192 232.2325 0012997 278.0937  81.8810 14.97053927192574
UWE-4                   
1 43880U 18111E   22165.72896758  .00003280  00000+0  28138-3 0  9990
2 43880  97.6682  72.0881 0011458 335.0421  25.0246 14.98137003189290
NEXUS (FO-99)           
1 43937U 19003F   22165.35816100  .00012504  00000+0  42202-3 0  9993
2 43937  97.1298 198.8294 0021711 160.1008 200.1085 15.30591711189505
PSAT2 (NO-104)          
1 44354U 19036R   22165.41897017  .00069043 -54404-5  62285-3 0  9993
2 44354  28.5245 199.3978 0231394 296.2744  61.4252 15.39311217164217
JAISAT-1                
1 44419U 19038F   22165.86491120  .00009225  00000+0  46404-3 0  9998
2 44419  97.6353 135.9672 0020760 136.2630 224.0252 15.17269470162666
DUCHIFAT-3              
1 44854U 19089C   22165.92026833  .00002398  00000+0  19003-3 0  9998
2 44854  36.9641 115.3628 0008387 211.5153 191.5189 15.01051509137558
CAS-6 (TO-108)          
1 44881U 19093C   22165.80983155  .00000407  00000+0  58288-4 0  9997
2 44881  97.8923 245.0564 0014634 189.6098 170.4834 14.81723585134380
RS-44 & BREEZE-KM R/B   
1 44909U 19096E   22165.21990536  .00000028  00000+0  74912-4 0  9998
2 44909  82.5221 232.4228 0216669 327.5664  31.2271 12.79713383115090
ORBITAL FACTORY 2 (OF-2)
1 45113U 19071C   22165.78147743  .00026366  00000+0  55086-3 0  9998
2 45113  51.6397  72.5133 0010346 154.6471 205.5025 15.45265223132965
HUSKYSAT-1 (HO-107)     
1 45119U 19071J   22165.78566016  .00023312  00000+0  50339-3 0  9996
2 45119  51.6393  72.5167 0010160 151.5358 208.6185 15.44367672132958
BY70-2                  
1 45857U 20042B   22165.85684904  .00005001  00000+0  67082-3 0  9998
2 45857  97.9542 242.7203 0012368 122.7072 237.5349 14.79754602105079
SALSAT                  
1 46495U 20068K   22165.56932284  .00002353  00000+0  17218-3 0  9993
2 46495  97.7306 106.8683 0014808 289.7016  70.2611 15.04504685 93757
BY70-3                  
1 46839U 20079N   22165.90957466  .00018248  00000+0  43161-3 0  9990
2 46839  97.1977 238.0349 0004445 357.8002  89.3611 15.41850708 89850
RADFXSAT-2 (AO-109)     
1 47311U 21002C   22165.84639607  .00009304  00000+0  37657-3 0  9996
2 47311  60.6861  12.0609 0015530 333.5744  26.4550 15.25249257 78061
UVSQ-SAT                
1 47438U 21006AB  22165.63930913  .00006975  00000+0  36965-3 0  9993
2 47438  97.4372 224.7069 0010175 285.5964  74.4145 15.15657311 76859
DIY-1 (ARDUIQUBE)       
1 47963U 21022AH  22165.70157564  .00014973  00000+0  83859-3 0  9996
2 47963  97.5336  67.0933 0018587 135.7116 224.5606 15.13368600 66533
XW-3 (CAS-9)            
1 50466U 21131B   22165.80718491  .00000195  00000+0  78346-4 0  9999
2 50466  98.5805 243.0622 0005484 145.7137 214.4404 14.38499321 24533
TEVEL-3                 
1 50988U 22002E   22165.92065138  .00005773  00000+0  31783-3 0  9992
2 50988  97.4815 232.9450 0011296  76.3560  10.7381 15.14362954 23035
TEVEL-8                 
1 50989U 22002F   22165.92560784  .00005628  00000+0  31044-3 0  9999
2 50989  97.4829 232.9669 0011218  75.7612  10.9614 15.14310191 23035
TEVEL-5                 
1 50998U 22002Q   22165.94194516  .00005587  00000+0  30357-3 0  9997
2 50998  97.4811 233.0523 0012733  72.6488  12.8331 15.14833369 23042
TEVEL-6                 
1 50999U 22002R   22165.81121472  .00005441  00000+0  29570-3 0  9999
2 50999  97.4801 232.9227 0012817  72.9150  21.9074 15.14834912 23021
TEVEL-1                 
1 51013U 22002AF  22165.92277968  .00005726  00000+0  31555-3 0  9993
2 51013  97.4814 232.9315 0011137  76.2452  10.6665 15.14338884 23036
TEVEL-7                 
1 51062U 22002CG  22165.92686863  .00005697  00000+0  31426-3 0  9999
2 51062  97.4817 232.9567 0011217  74.5902  12.0357 15.14300720 23034
TEVEL-4                 
1 51063U 22002CH  22165.92179738  .00005700  00000+0  31451-3 0  9991
2 51063  97.4819 232.9504 0011056  75.5361 340.9944 15.14293437 23030
TEVEL-2                 
1 51069U 22002CP  22165.92471949  .00005728  00000+0  31549-3 0  9994
2 51069  97.4809 232.9387 0011115  76.1443  27.7363 15.14355028 23038
